HELLAS-SAT 3            
1 42814U 17040A   26159.99308707  .00000169  00000+0  00000+0 0  9991
2 42814   0.0579  55.5659 0004626 354.8875 243.4447  1.00273758 32720
GSAT-17                 
1 42815U 17040B   26160.86786241 -.00000241  00000+0  00000+0 0  9995
2 42815   0.1074  88.2092 0001601 211.9373   4.0330  1.00271434 32712
INTELSAT 35E (IS-35E)   
1 42818U 17041A   26160.47761220 -.00000221  00000+0  00000+0 0  9994
2 42818   0.0189   7.5995 0001633  70.2855 317.4382  1.00271510 32738
COSMOS 2520             
1 42907U 17046A   26159.63781562  .00000153  00000+0  00000+0 0  9998
2 42907   0.0442  86.9350 0001169  55.5058  29.2057  1.00270113 32319
TDRS 13                 
1 42915U 17047A   26160.69606178 -.00000085  00000+0  00000+0 0  9990
2 42915   3.4496   2.5311 0014559 105.5364  29.1459  1.00271850 32277
QZS-3 (MICHIBIKI-3)     
1 42917U 17048A   26160.79476438 -.00000331  00000+0  00000+0 0  9992
2 42917   0.0574 178.0004 0002626 269.8228 223.4719  1.00268774 32181
AMAZONAS 5              
1 42934U 17053A   26160.32980735 -.00000266  00000+0  00000+0 0  9993
2 42934   0.0312 323.9850 0002412  64.7103 286.7531  1.00270254 31962
ASIASAT 9               
1 42942U 17057A   26160.65125072 -.00000342  00000+0  00000+0 0  9992
2 42942   0.0120  84.3178 0002406 351.8424 178.4194  1.00270665 31786
INTELSAT 37E (IS-37E)   
1 42950U 17059A   26160.69476178 -.00000124  00000+0  00000+0 0  9991
2 42950   0.0188  12.8762 0002298  89.4990  27.8102  1.00269881 31992
BSAT-4A                 
1 42951U 17059B   26160.00712714 -.00000334  00000+0  00000+0 0  9999
2 42951   0.0365   6.7991 0004164  58.5529 304.4340  1.00272912 31712
QZS-4 (MICHIBIKI-4)     
1 42965U 17062A   26160.36764368 -.00000311  00000+0  00000+0 0  9994
2 42965  40.1130 343.5833 0745074 271.5991 272.5339  1.00253241 31729
SES-11 (ECHOSTAR 105)   
1 42967U 17063A   26160.67756544 -.00000072  00000+0  00000+0 0  9992
2 42967   0.0151 352.2876 0002679  98.2971 306.4353  1.00270770 31642
KOREASAT 5A             
1 42984U 17067A   26160.79199103 -.00000341  00000+0  00000+0 0  9999
2 42984   0.0095 319.4861 0000535 128.9818 207.9706  1.00270764 31456
ALCOMSAT 1              
1 43039U 17078A   26160.69346177 -.00000169  00000+0  00000+0 0  9995
2 43039   0.0368  73.2763 0002322   1.3730  48.2723  1.00272447 31220
SBIRS GEO-3 (USA 282)   
1 43162U 18009A   26160.80934869  .00000144  00000+0  00000+0 0  9993
2 43162   2.1787  11.7288 0002015  63.2735 315.1489  1.00271905 30777
AL YAH 3                
1 43174U 18012A   26160.69432845 -.00000138  00000+0  00000+0 0  9998
2 43174   1.5315  83.1980 0004064 355.7522  48.9819  1.00271113 30770
SES-14                  
1 43175U 18012B   26160.47501219 -.00000261  00000+0  00000+0 0  9994
2 43175   0.0220  31.0141 0001057  53.8990 296.4420  1.00270313  6946
GOES 17                 
1 43226U 18022A   26160.60932773 -.00000165  00000+0  00000+0 0  9993
2 43226   0.9169  85.8521 0000565  15.6485 286.3536  1.00271448 30348
HISPASAT 30W-6          
1 43228U 18023A   26160.19333439 -.00000199  00000+0  00000+0 0  9991
2 43228   0.0466  43.0702 0006065  24.4046 229.6971  1.00270107 30322
SUPERBIRD-B3            
1 43271U 18033A   26160.80169774 -.00000075  00000+0  00000+0 0  9990
2 43271   0.0163 299.7541 0001255 162.9697 246.0648  1.00270739 29986
HYLAS 4                 
1 43272U 18033B   26160.47778553 -.00000216  00000+0  00000+0 0  9992
2 43272   0.0194  57.3369 0001003  29.6517 309.4007  1.00269264 29982
IRNSS-1I                
1 43286U 18035A   26159.97936503  .00000092  00000+0  00000+0 0  9994
2 43286  28.7349  74.3250 0017795 182.7620  47.7314  1.00270374 29993
USA 283                 
1 43339U 18036A   26158.44341078  .00000000  00000+0  00000+0 0  9991
2 43339   0.0123 333.7419 0000458 159.1187  56.7029  1.00268454 25195
COSMOS 2526             
1 43432U 18037A   26160.29595498 -.00000327  00000+0  00000+0 0  9992
2 43432   0.0147  11.4942 0000463 198.5933 282.2090  1.00274990 29884
APSTAR-6C               
1 43450U 18041A   26160.51094120 -.00000300  00000+0  00000+0 0  9999
2 43450   0.0251 332.4419 0001184  20.4488 222.9475  1.00272714 29738
BANGABANDHUSAT-1        
1 43463U 18044A   26160.79320436  .00000000  00000+0  00000+0 0  9994
2 43463   0.0167 340.5630 0001735 101.8094 220.4379  1.00268292 29633
SES-12                  
1 43488U 18049A   26160.84191638 -.00000252  00000+0  00000+0 0  9992
2 43488   0.0287  45.0830 0000921 240.6472  10.5699  1.00269142 29346
FENGYUN 2H              
1 43491U 18050A   26160.92787309 -.00000114  00000+0  00000+0 0  9990
2 43491   3.0115  79.1611 0001666 127.6158 105.0010  1.00270963 29362
BEIDOU-2 IGSO-7         
1 43539U 18057A   26160.43496720  .00000036  00000+0  00000+0 0  9992
2 43539  55.1933 163.1254 0104876 237.9492 123.8731  1.00253775 29057
TELSTAR 19V             
1 43562U 18059A   26160.04519647 -.00000262  00000+0  00000+0 0  9993
2 43562   0.0357 175.1217 0003228 305.1580  90.4046  1.00255741 29063
TELKOM 4 (MERAH PUTIH)  
1 43587U 18064A   26160.84443016  .00000000  00000+0  00000+0 0  9999
2 43587   0.0177 348.1817 0001318 126.2581 195.7668  1.00268055 28801
TELSTAR 18V             
1 43611U 18069A   26160.79693105 -.00000276  00000+0  00000+0 0  9998
2 43611   0.0183 290.8105 0001791 144.6350 247.6343  1.00270434 28566
