OBJECT_NAME,OBJECT_ID,EPOCH,MEAN_MOTION,ECCENTRICITY,INCLINATION,RA_OF_ASC_NODE,ARG_OF_PERICENTER,MEAN_ANOMALY,EPHEMERIS_TYPE,CLASSIFICATION_TYPE,NORAD_CAT_ID,ELEMENT_SET_NO,REV_AT_EPOCH,BSTAR,MEAN_MOTION_DOT,MEAN_MOTION_DDOT
HELLAS-SAT 3,2017-040A,2026-06-08T23:50:02.722848,1.00273758,.00046263,0.0579,55.5659,354.8875,243.4447,0,U,42814,999,3272,0,.169E-5,0
GSAT-17,2017-040B,2026-06-09T20:49:43.312224,1.00271434,.00016016,0.1074,88.2092,211.9373,4.0330,0,U,42815,999,3271,0,-.241E-5,0
INTELSAT 35E (IS-35E),2017-041A,2026-06-09T11:27:45.694080,1.00271510,.00016335,0.0189,7.5995,70.2855,317.4382,0,U,42818,999,3273,0,-.221E-5,0
COSMOS 2520,2017-046A,2026-06-08T15:18:27.269568,1.00270113,.00011695,0.0442,86.9350,55.5058,29.2057,0,U,42907,999,3231,0,.153E-5,0
TDRS 13,2017-047A,2026-06-09T16:42:19.737792,1.00271850,.0014559,3.4496,2.5311,105.5364,29.1459,0,U,42915,999,3227,0,-.85E-6,0
QZS-3 (MICHIBIKI-3),2017-048A,2026-06-09T19:04:27.642432,1.00268774,.00026263,0.0574,178.0004,269.8228,223.4719,0,U,42917,999,3218,0,-.331E-5,0
AMAZONAS 5,2017-053A,2026-06-09T07:54:55.355040,1.00270254,.00024128,0.0312,323.9850,64.7103,286.7531,0,U,42934,999,3196,0,-.266E-5,0
ASIASAT 9,2017-057A,2026-06-09T15:37:48.062208,1.00270665,.0002406,0.0120,84.3178,351.8424,178.4194,0,U,42942,999,3178,0,-.342E-5,0
INTELSAT 37E (IS-37E),2017-059A,2026-06-09T16:40:27.417792,1.00269881,.00022983,0.0188,12.8762,89.4990,27.8102,0,U,42950,999,3199,0,-.124E-5,0
BSAT-4A,2017-059B,2026-06-09T00:10:15.784896,1.00272912,.0004164,0.0365,6.7991,58.5529,304.4340,0,U,42951,999,3171,0,-.334E-5,0
QZS-4 (MICHIBIKI-4),2017-062A,2026-06-09T08:49:24.413952,1.00253241,.0745074,40.1130,343.5833,271.5991,272.5339,0,U,42965,999,3172,0,-.311E-5,0
SES-11 (ECHOSTAR 105),2017-063A,2026-06-09T16:15:41.654016,1.00270770,.00026793,0.0151,352.2876,98.2971,306.4353,0,U,42967,999,3164,0,-.72E-6,0
KOREASAT 5A,2017-067A,2026-06-09T19:00:28.024992,1.00270764,.00005357,0.0095,319.4861,128.9818,207.9706,0,U,42984,999,3145,0,-.341E-5,0
ALCOMSAT 1,2017-078A,2026-06-09T16:38:35.096928,1.00272447,.00023225,0.0368,73.2763,1.3730,48.2723,0,U,43039,999,3122,0,-.169E-5,0
SBIRS GEO-3 (USA 282),2018-009A,2026-06-09T19:25:27.726816,1.00271905,.00020158,2.1787,11.7288,63.2735,315.1489,0,U,43162,999,3077,0,.144E-5,0
AL YAH 3,2018-012A,2026-06-09T16:39:49.978080,1.00271113,.00040642,1.5315,83.1980,355.7522,48.9819,0,U,43174,999,3077,0,-.138E-5,0
SES-14,2018-012B,2026-06-09T11:24:01.053216,1.00270313,.00010572,0.0220,31.0141,53.8990,296.4420,0,U,43175,999,694,0,-.261E-5,0
GOES 17,2018-022A,2026-06-09T14:37:25.915872,1.00271448,.00005653,0.9169,85.8521,15.6485,286.3536,0,U,43226,999,3034,0,-.165E-5,0
HISPASAT 30W-6,2018-023A,2026-06-09T04:38:24.091296,1.00270107,.0006065,0.0466,43.0702,24.4046,229.6971,0,U,43228,999,3032,0,-.199E-5,0
SUPERBIRD-B3,2018-033A,2026-06-09T19:14:26.684736,1.00270739,.00012558,0.0163,299.7541,162.9697,246.0648,0,U,43271,999,2998,0,-.75E-6,0
HYLAS 4,2018-033B,2026-06-09T11:28:00.669792,1.00269264,.00010038,0.0194,57.3369,29.6517,309.4007,0,U,43272,999,2998,0,-.216E-5,0
IRNSS-1I,2018-035A,2026-06-08T23:30:17.138592,1.00270374,.00177953,28.7349,74.3250,182.7620,47.7314,0,U,43286,999,2999,0,.92E-6,0
USA 283,2018-036A,2026-06-07T10:38:30.691392,1.00268454,.0000458,0.0123,333.7419,159.1187,56.7029,0,U,43339,999,2519,0,0,0
COSMOS 2526,2018-037A,2026-06-09T07:06:10.510272,1.00274990,.0000463,0.0147,11.4942,198.5933,282.2090,0,U,43432,999,2988,0,-.327E-5,0
APSTAR-6C,2018-041A,2026-06-09T12:15:45.319680,1.00272714,.0001184,0.0251,332.4419,20.4488,222.9475,0,U,43450,999,2973,0,-.3E-5,0
BANGABANDHUSAT-1,2018-044A,2026-06-09T19:02:12.856704,1.00268292,.00017355,0.0167,340.5630,101.8094,220.4379,0,U,43463,999,2963,0,0,0
SES-12,2018-049A,2026-06-09T20:12:21.575232,1.00269142,.00009217,0.0287,45.0830,240.6472,10.5699,0,U,43488,999,2934,0,-.252E-5,0
FENGYUN 2H,2018-050A,2026-06-09T22:16:08.234976,1.00270963,.00016666,3.0115,79.1611,127.6158,105.0010,0,U,43491,999,2936,0,-.114E-5,0
BEIDOU-2 IGSO-7,2018-057A,2026-06-09T10:26:21.166080,1.00253775,.01048762,55.1933,163.1254,237.9492,123.8731,0,U,43539,999,2905,0,.36E-6,0
TELSTAR 19V,2018-059A,2026-06-09T01:05:04.975008,1.00255741,.00032288,0.0357,175.1217,305.1580,90.4046,0,U,43562,999,2906,0,-.262E-5,0
TELKOM 4 (MERAH PUTIH),2018-064A,2026-06-09T20:15:58.765824,1.00268055,.00013181,0.0177,348.1817,126.2581,195.7668,0,U,43587,999,2880,0,0,0
TELSTAR 18V,2018-069A,2026-06-09T19:07:34.842720,1.00270434,.00017914,0.0183,290.8105,144.6350,247.6343,0,U,43611,999,2856,0,-.276E-5,0
